HAWK-7B                 
1 56193U 23054R   26188.74601791  .00003788  00000+0  14312-3 0  9997
2 56193  97.2701  73.8317 0002127  30.1406 329.9955 15.27582960180160
HAWK-7C                 
1 56200U 23054Y   26188.74590649  .00003717  00000+0  14051-3 0  9997
2 56200  97.2677  74.5939 0001795  17.0088 343.1211 15.27581486180164
HAWK-8A                 
1 59443U 24066B   26188.36888852  .00001155  00000+0  11194-3 0  9996
2 59443  45.5938 172.2879 0002338 184.9013 175.1846 14.99271545122867
HAWK-8B                 
1 59445U 24066D   26188.43597716  .00005918  00000+0  49629-3 0  9997
2 59445  45.6168 173.9055 0001880 183.8620 176.2247 14.99271083122866
HAWK-9A                 
1 59446U 24066E   26188.32517065  .00001223  00000+0  11766-3 0  9991
2 59446  45.6083 173.1431 0002040 166.5727 193.5209 14.99198600122850
HAWK-9C                 
1 59448U 24066G   26188.12553816  .00001318  00000+0  12531-3 0  9991
2 59448  45.6044 173.2768 0001866 144.2016 215.8991 14.99201266122828
HAWK-8C                 
1 59449U 24066H   26188.43546819  .00001408  00000+0  13230-3 0  9998
2 59449  45.6051 172.9334 0002222 197.7538 162.3266 14.99276386122861
HAWK-9B                 
1 59450U 24066J   26188.39210151  .00001267  00000+0  12116-3 0  9997
2 59450  45.6122 173.7316 0002062 136.1055 223.9990 14.99199766122868
HAWK-10A                
1 60540U 24149CA  26188.76316434  .00001828  00000+0  16561-3 0  9994
2 60540  97.6892 264.3210 0003730  31.0488 329.0954 14.96579003103069
HAWK-10B                
1 60545U 24149CF  26188.76302470  .00001787  00000+0  16202-3 0  9990
2 60545  97.6813 263.6553 0006105  40.0936 320.0735 14.96578793103069
HAWK-10C                
1 60575U 24149DM  26188.76335389  .00001702  00000+0  15450-3 0  9999
2 60575  97.6731 262.9734 0003306  21.1702 338.9656 14.96578612103065
HAWK-11B                
1 62379U 24247C   26188.40399823  .00004662  00000+0  16471-3 0  9998
2 62379  45.0136 178.8987 0004076 337.7618  22.3089 15.30594788 86107
HAWK-11C                
1 62381U 24247E   26188.33826942  .00004379  00000+0  15533-3 0  9993
2 62381  45.0020 178.5981 0004967 327.7848  32.2733 15.30591577 86093
HAWK-11A                
1 62382U 24247F   26188.33835372  .00004358  00000+0  15465-3 0  9992
2 62382  44.9920 177.9339 0004469 327.0820  32.9785 15.30592316 86097
HAWK-12C                
1 64621U 25138A   26188.80278887  .00002961  00000+0  14699-3 0  9990
2 64621  97.4350 190.8975 0015702  74.7791 285.5178 15.18367519 56999
HAWK-12B                
1 64622U 25138B   26188.80296198  .00002907  00000+0  14443-3 0  9993
2 64622  97.4472 191.5795 0014634  70.3936 289.8876 15.18367027 56995
